[{"OBJECT_NAME":"IRIDIUM 109","OBJECT_ID":"2017-003C","EPOCH":"2026-03-09T16:03:22.246272","MEAN_MOTION":14.34217553,"ECCENTRICITY":0.00020925,"INCLINATION":86.3982,"RA_OF_ASC_NODE":130.128,"ARG_OF_PERICENTER":95.091,"MEAN_ANOMALY":265.0525,"EPHEMERIS_TYPE":0,"CLASSIFICATION_TYPE":"U","NORAD_CAT_ID":41919,"ELEMENT_SET_NO":999,"REV_AT_EPOCH":47893,"BSTAR":-6.19911e-6,"MEAN_MOTION_DOT":2.0e-8,"MEAN_MOTION_DDOT":0},{"OBJECT_NAME":"COSMOS 2298","OBJECT_ID":"1994-083A","EPOCH":"2026-03-09T22:06:26.635104","MEAN_MOTION":14.31156524,"ECCENTRICITY":0.00171606,"INCLINATION":74.0313,"RA_OF_ASC_NODE":328.8798,"ARG_OF_PERICENTER":291.7759,"MEAN_ANOMALY":68.1565,"EPHEMERIS_TYPE":0,"CLASSIFICATION_TYPE":"U","NORAD_CAT_ID":23431,"ELEMENT_SET_NO":999,"REV_AT_EPOCH":62948,"BSTAR":6.8786132e-5,"MEAN_MOTION_DOT":1.56e-6,"MEAN_MOTION_DDOT":0}]
